{
    "links": {
        "self": "http://www.neowsapp.com/rest/v1/neo/3788010?api_key=iIulBulltgU6a56xZRHN4H3l9WmuAYTsLGpBGhQ2"
    },
    "id": "3788010",
    "neo_reference_id": "3788010",
    "name": "(2017 UT4)",
    "designation": "2017 UT4",
    "nasa_jpl_url": "http://ssd.jpl.nasa.gov/sbdb.cgi?sstr=3788010",
    "absolute_magnitude_h": 25.5,
    "estimated_diameter": {
        "kilometers": {
            "estimated_diameter_min": 0.0211132445,
            "estimated_diameter_max": 0.0472106499
        },
        "meters": {
            "estimated_diameter_min": 21.113244479,
            "estimated_diameter_max": 47.2106498806
        },
        "miles": {
            "estimated_diameter_min": 0.0131191578,
            "estimated_diameter_max": 0.0293353287
        },
        "feet": {
            "estimated_diameter_min": 69.2691770164,
            "estimated_diameter_max": 154.8905885541
        }
    },
    "is_potentially_hazardous_asteroid": false,
    "close_approach_data": [
        {
            "close_approach_date": "2017-11-26",
            "close_approach_date_full": "2017-Nov-26 04:34",
            "epoch_date_close_approach": 1511670840000,
            "relative_velocity": {
                "kilometers_per_second": "3.9161873335",
                "kilometers_per_hour": "14098.274400723",
                "miles_per_hour": "8760.1194463826"
            },
            "miss_distance": {
                "astronomical": "0.0754341206",
                "lunar": "29.3438729134",
                "kilometers": "11284783.767083122",
                "miles": "7012039.4802742036"
            },
            "orbiting_body": "Earth"
        },
        {
            "close_approach_date": "2022-07-01",
            "close_approach_date_full": "2022-Jul-01 04:28",
            "epoch_date_close_approach": 1656649680000,
            "relative_velocity": {
                "kilometers_per_second": "6.3056118536",
                "kilometers_per_hour": "22700.2026728497",
                "miles_per_hour": "14105.0231552493"
            },
            "miss_distance": {
                "astronomical": "0.0834200389",
                "lunar": "32.4503951321",
                "kilometers": "12479460.134757143",
                "miles": "7754376.9525008534"
            },
            "orbiting_body": "Mars"
        },
        {
            "close_approach_date": "2100-11-22",
            "close_approach_date_full": "2100-Nov-22 01:53",
            "epoch_date_close_approach": 4130531580000,
            "relative_velocity": {
                "kilometers_per_second": "4.9284449091",
                "kilometers_per_hour": "17742.4016728542",
                "miles_per_hour": "11024.4384172244"
            },
            "miss_distance": {
                "astronomical": "0.0775532282",
                "lunar": "30.1682057698",
                "kilometers": "11601797.750343934",
                "miles": "7209022.8352329292"
            },
            "orbiting_body": "Earth"
        },
        {
            "close_approach_date": "2107-02-20",
            "close_approach_date_full": "2107-Feb-20 05:03",
            "epoch_date_close_approach": 4327621380000,
            "relative_velocity": {
                "kilometers_per_second": "8.3277486897",
                "kilometers_per_hour": "29979.8952829278",
                "miles_per_hour": "18628.3410439948"
            },
            "miss_distance": {
                "astronomical": "0.0794201301",
                "lunar": "30.8944306089",
                "kilometers": "11881082.298082887",
                "miles": "7382562.2060703606"
            },
            "orbiting_body": "Mars"
        }
    ],
    "orbital_data": {
        "orbit_id": "2",
        "orbit_determination_date": "2017-11-13 06:20:40",
        "first_observation_date": "2017-10-22",
        "last_observation_date": "2017-11-12",
        "data_arc_in_days": 21,
        "observations_used": 21,
        "orbit_uncertainty": "7",
        "minimum_orbit_intersection": ".0728886",
        "jupiter_tisserand_invariant": "4.753",
        "epoch_osculation": "2459000.5",
        "eccentricity": ".2630241916214913",
        "semi_major_axis": "1.382596088203828",
        "inclination": "5.555483927368953",
        "ascending_node_longitude": "29.58767417063925",
        "orbital_period": "593.8016671207822",
        "perihelion_distance": "1.01893986976498",
        "perihelion_argument": "56.24179150915262",
        "aphelion_distance": "1.746252306642676",
        "perihelion_time": "2459292.796995917566",
        "mean_anomaly": "182.7911365750343",
        "mean_motion": ".6062630334898911",
        "equinox": "J2000",
        "orbit_class": {
            "orbit_class_type": "AMO",
            "orbit_class_description": "Near-Earth asteroid orbits similar to that of 1221 Amor",
            "orbit_class_range": "1.017 AU < q (perihelion) < 1.3 AU"
        }
    },
    "is_sentry_object": false
}